KUIPER-00061            
1 64521U 25134X   26003.73953120  .00008548  00000+0  11485-2 0  9999
2 64521  51.9009 155.2967 0000991  74.2818 285.8254 14.79946091 30511
KUIPER-00062            
1 64522U 25134Y   26003.75595981  .00006094  00000+0  73135-3 0  9994
2 64522  51.8963 159.3862 0007542  78.4760 281.7051 14.85130664 30473
KUIPER-00063            
1 64523U 25134Z   26003.72868805  .00005110  00000+0  69845-3 0  9991
2 64523  51.9014 165.3432 0000284 135.2003 224.8983 14.79952742 30384
KUIPER-00064            
1 64524U 25134AA  26003.73132415  .00005629  00000+0  76633-3 0  9992
2 64524  51.9011 162.7491 0007372 135.8661 224.2891 14.79955670 30429
KUIPER-00065            
1 64525U 25134AB  26004.33336806  .00043982  00000+0  57336-2 0  9992
2 64525  51.9012 165.2413 0006797  77.3015 280.5649 14.80118287  5320
KUIPER-00066            
1 64526U 25134AC  26004.30378984  .00019522  00000+0  86670-3 0  9990
2 64526  51.8918 128.2621 0000555   5.0910 355.0076 15.21555800 30954
KUIPER-00069            
1 64816U 25151A   26003.81780676 -.00004097  00000+0 -50868-3 0  9994
2 64816  51.9001 207.4765 0003948  83.0400 277.1012 14.79916378 27153
KUIPER-00070            
1 64817U 25151B   26003.89214850 -.00000273  00000+0 -64227-5 0  9997
2 64817  51.8968 232.1001 0011114  45.4374 314.7494 14.79897252 26823
